LEMUR-2-ANDIS           
1 42838U 17042P   26068.55941107  .00023598  00000+0  79875-3 0  9998
2 42838  97.3659 249.7950 0009101   4.3248 355.8070 15.30557934473198
STARLINK-30520          
1 58010U 23153V   26068.05498536  .00000623  00000+0  32147-4 0  9991
2 58010  43.0017  70.2477 0001547 267.8325  92.2349 15.27581814134704
